{"type":"FeatureCollection","features":[{"type":"Feature","properties":{"region":"Херсонская область"},"geometry":{"type":"Polygon","coordinates":[[[35.2334,45.7917],[35.151,45.9315],[35.2419,45.9454],[35.3274,45.9853],[35.468,46.1465],[35.2781,46.2646],[35.1282,46.3021],[35.0735,46.2999],[35.0535,46.4816],[35.0222,46.4793],[34.9472,46.5125],[34.8904,46.5068],[34.8912,46.5626],[34.7576,46.5493],[34.7483,46.5842],[34.7233,46.5815],[34.7128,46.6201],[34.7563,46.627],[34.7462,46.6832],[34.6322,46.6876],[34.6252,46.724],[34.735,46.7473],[34.7501,46.7805],[34.7676,46.7809],[34.7581,46.8227],[34.817,46.8289],[34.8047,46.8825],[34.7526,46.8795],[34.7362,46.9615],[34.6855,46.9559],[34.681,46.9791],[34.6238,46.9734],[34.6175,46.9933],[34.5996,46.9918],[34.5917,47.0268],[34.5673,47.0245],[34.5535,47.106],[34.5195,47.1047],[34.4909,47.2468],[34.5301,47.2508],[34.5272,47.2674],[34.5182,47.2835],[34.4878,47.2799],[34.4794,47.3151],[34.5138,47.3181],[34.5159,47.3362],[34.4135,47.3233],[34.4188,47.3009],[34.3987,47.2984],[34.4012,47.2872],[34.3291,47.2907],[34.3053,47.2691],[34.2427,47.4339],[34.2185,47.4527],[34.1395,47.4772],[33.9548,47.4576],[33.9348,47.5163],[33.6436,47.4845],[33.636,47.5141],[33.5884,47.5023],[33.5804,47.5325],[33.5715,47.5242],[33.5887,47.5582],[33.6091,47.5609],[33.5803,47.6002],[33.4737,47.5873],[33.4861,47.5439],[33.3227,47.5236],[33.3488,47.4937],[33.3143,47.4825],[33.31,47.5016],[33.2792,47.5168],[33.2856,47.5441],[33.2154,47.533],[33.234,47.5771],[33.1719,47.5667],[33.0927,47.5788],[33.095,47.5276],[33.1417,47.5435],[33.1469,47.5146],[33.1232,47.5079],[33.1378,47.4195],[33.0716,47.4124],[33.0668,47.4749],[33.0473,47.4685],[33.0539,47.4441],[33.0341,47.4416],[33.0359,47.3912],[33.0393,47.3797],[33.1221,47.3901],[33.1373,47.3337],[33.1029,47.3223],[33.1052,47.2805],[33.1828,47.2386],[33.1282,47.2313],[33.1429,47.2098],[33.1296,47.2028],[33.0721,47.2234],[33.0367,47.1777],[33.0052,47.1963],[32.9614,47.1896],[32.9179,47.1434],[32.9068,47.1206],[32.9167,47.0872],[33.0686,47.0222],[33.0228,46.9729],[32.9497,47.0032],[32.934,46.9863],[32.9497,46.9465],[32.9756,46.9491],[32.9795,46.9335],[32.8392,46.8963],[32.8409,46.882],[32.9153,46.8833],[32.9199,46.8661],[32.9491,46.8579],[32.8136,46.8401],[32.7716,46.8208],[32.7014,46.8208],[32.6879,46.8621],[32.5855,46.8558],[32.5705,46.8726],[32.5467,46.8694],[32.5443,46.8832],[32.5338,46.8815],[32.5417,46.8502],[32.5261,46.8484],[32.532,46.8238],[32.4693,46.8166],[32.4633,46.8404],[32.3654,46.8293],[32.3729,46.7991],[32.3416,46.7954],[32.2275,46.8452],[32.2522,46.8196],[32.2097,46.8057],[32.2187,46.7713],[32.169,46.7635],[32.1715,46.7523],[32.0572,46.7446],[32.0609,46.728],[32.0757,46.73],[32.087,46.6835],[31.9402,46.651],[31.8457,46.4979],[31.8072,46.479],[31.8306,46.3533],[31.3815,46.4076],[31.1591,46.4097],[31.2373,46.4032],[31.2397,46.2838],[31.2654,46.2176],[31.4248,46.0903],[31.6162,46.0357],[31.8925,45.9971],[32.4468,45.8707],[32.7727,45.8266],[33.5407,46.012],[33.5912,46.0612],[33.5721,46.1026],[33.6413,46.1424],[33.6152,46.2262],[33.6459,46.2302],[33.74,46.1852],[33.7969,46.203],[33.8487,46.1997],[33.9982,46.1265],[34.1175,46.1073],[34.1844,46.0669],[34.3396,46.0579],[34.4762,45.9441],[34.5109,45.948],[34.5612,45.9944],[34.6285,45.9864],[34.754,45.9088],[34.8022,45.9006],[34.7991,45.8105],[34.9598,45.7566],[35.2334,45.7917]]]}},{"type":"Feature","properties":{"region":"Луганская Народная Республика"},"geometry":{"type":"Polygon","coordinates":[[[37.8658,49.2458],[37.8903,49.2119],[37.9427,49.2141],[37.9197,49.2064],[37.935,49.1918],[37.8931,49.1747],[37.8934,49.1605],[37.9265,49.1438],[38.0404,49.1267],[38.0442,49.1505],[38.0816,49.148],[38.0531,49.0589],[38.0989,48.9923],[38.0551,48.9865],[38.054,48.9649],[38.0302,48.9742],[38.0052,48.9466],[38.037,48.9434],[38.0383,48.9253],[38.0542,48.9397],[38.1311,48.9239],[38.2279,48.9368],[38.2214,48.8396],[38.3135,48.8283],[38.3183,48.806],[38.2788,48.8026],[38.2826,48.7738],[38.263,48.7502],[38.3213,48.7317],[38.3253,48.7142],[38.3043,48.7123],[38.315,48.6847],[38.2258,48.6525],[38.2289,48.634],[38.2637,48.6367],[38.2735,48.5454],[38.3201,48.5089],[38.2985,48.4952],[38.305,48.4749],[38.2882,48.4767],[38.342,48.4386],[38.3715,48.443],[38.3823,48.4296],[38.4332,48.4477],[38.4501,48.3759],[38.4984,48.3656],[38.4334,48.3393],[38.4411,48.3165],[38.427,48.2783],[38.5747,48.2676],[38.6134,48.2043],[38.6025,48.1723],[38.8204,48.1162],[38.8067,48.0883],[38.8175,48.0843],[38.7995,48.0747],[38.8179,48.0659],[38.8293,48.0774],[38.8315,48.0579],[38.8127,48.0479],[38.8254,48.0298],[38.8613,48.0148],[39.0398,48.0069],[39.0385,47.9564],[39.0914,47.941],[39.0652,47.896],[39.0831,47.8516],[39.1496,47.8424],[39.2365,47.8536],[39.2417,47.8671],[39.3542,47.8726],[39.3873,47.8712],[39.4132,47.8297],[39.4394,47.8402],[39.44,47.8548],[39.4778,47.8607],[39.5209,47.8257],[39.6257,47.8391],[39.738,47.8278],[39.7632,47.8463],[39.7634,47.8707],[39.7949,47.8704],[39.7936,47.9194],[39.8061,47.9505],[39.8248,47.9553],[39.8165,48.0013],[39.7769,48.0399],[39.8834,48.0416],[39.834,48.067],[39.8689,48.0792],[39.8705,48.1166],[39.9025,48.1403],[39.9098,48.1798],[39.937,48.181],[39.942,48.2286],[40.0096,48.2251],[40.0208,48.2539],[39.9903,48.3171],[39.915,48.2696],[39.8876,48.3085],[39.8412,48.3101],[39.8453,48.3329],[39.9474,48.3547],[39.9323,48.3646],[39.9415,48.3863],[39.924,48.3752],[39.9057,48.3904],[39.9185,48.3989],[39.8889,48.442],[39.8976,48.4473],[39.8464,48.4738],[39.8472,48.5016],[39.8673,48.5078],[39.8504,48.5679],[39.7916,48.593],[39.6879,48.5868],[39.6606,48.6091],[39.7233,48.6839],[39.7043,48.7205],[39.7395,48.7437],[39.7256,48.7524],[39.7437,48.7702],[39.7683,48.7658],[39.8001,48.8426],[39.9755,48.793],[40.0801,48.8701],[40.061,48.9089],[40.0351,48.9159],[40.004,48.9013],[39.9932,48.8682],[39.925,48.8958],[39.8524,48.8905],[39.8394,48.9031],[39.827,48.8865],[39.8182,48.9077],[39.7765,48.9207],[39.7784,48.9519],[39.7529,48.9859],[39.7265,48.9757],[39.7039,48.9992],[39.6783,48.9891],[39.6637,49.0009],[39.6851,49.0339],[39.6724,49.0404],[39.6932,49.0505],[39.7664,49.0401],[39.8052,49.0599],[39.938,49.0564],[39.9383,49.083],[40.0311,49.1798],[40.0774,49.187],[40.1373,49.2398],[40.2213,49.2499],[40.2276,49.2605],[40.1859,49.2812],[40.1946,49.3465],[40.1144,49.3857],[40.0293,49.4536],[40.0392,49.5207],[40.1696,49.5688],[40.1354,49.6171],[40.065,49.599],[39.9521,49.5971],[39.9346,49.5734],[39.8912,49.5583],[39.806,49.5579],[39.7503,49.5974],[39.6579,49.6167],[39.5913,49.7183],[39.6105,49.7337],[39.4437,49.76],[39.3788,49.7385],[39.2852,49.7554],[39.2509,49.7765],[39.2277,49.8074],[39.2267,49.8398],[39.1799,49.8888],[39.0668,49.8156],[39.022,49.8216],[38.9302,49.797],[38.9067,49.8278],[38.9184,49.8586],[38.9012,49.8693],[38.791,49.8784],[38.694,49.9349],[38.686,49.9622],[38.718,49.9835],[38.687,50.0077],[38.6798,49.9741],[38.6475,49.9559],[38.5826,49.9775],[38.5273,49.9586],[38.4887,49.9632],[38.465,49.983],[38.4693,49.9953],[38.4341,50.0014],[38.4163,49.9818],[38.3505,50.0069],[38.3296,50.0854],[38.1782,50.08],[38.1862,50.0228],[38.2218,49.9791],[38.1322,49.9246],[38.1246,49.9424],[38.0458,49.9153],[38.033,49.9002],[38.0936,49.8461],[38.0183,49.8375],[38.0097,49.813],[38.0537,49.7835],[37.9985,49.7532],[37.977,49.7674],[37.9508,49.7312],[37.9737,49.7086],[38.0173,49.7139],[38.0004,49.7005],[38.0472,49.6575],[37.9861,49.6435],[37.9972,49.6282],[37.9447,49.6116],[37.9353,49.5944],[37.9539,49.5694],[37.9014,49.5733],[37.8846,49.549],[37.927,49.5416],[37.8421,49.5076],[37.8447,49.4459],[37.8762,49.4465],[37.8769,49.4134],[37.8964,49.4036],[37.8832,49.3129],[37.946,49.303],[37.9585,49.2847],[37.8985,49.2701],[37.911,49.2592],[37.8658,49.2458]]]}},{"type":"Feature","properties":{"region":"Донецкая Народная Республика"},"geometry":{"type":"Polygon","coordinates":[[[36.7117,48.6923],[36.7453,48.5965],[36.7787,48.6005],[36.7885,48.5668],[36.8596,48.569],[36.8848,48.5418],[36.9016,48.5433],[36.9066,48.5208],[36.8503,48.5178],[36.8572,48.4872],[36.8298,48.4846],[36.8514,48.4172],[36.8245,48.4144],[36.8361,48.407],[36.8206,48.4048],[36.8278,48.3694],[36.8119,48.3685],[36.8088,48.348],[36.8171,48.3126],[36.9121,48.309],[36.9369,48.1942],[36.8728,48.1839],[36.8965,48.0776],[36.8545,48.0346],[36.8035,48.053],[36.7436,48.0504],[36.7469,48.0643],[36.7186,48.0847],[36.6534,48.1002],[36.636,48.0943],[36.649,48.0932],[36.6506,48.0881],[36.5801,48.0796],[36.5873,48.0524],[36.5739,48.04],[36.5908,48.0202],[36.5684,48.0118],[36.5862,48.001],[36.5851,47.9566],[36.6288,47.9618],[36.6402,47.9203],[36.542,47.906],[36.5493,47.8774],[36.5766,47.8802],[36.5848,47.8474],[36.6047,47.8508],[36.5876,47.7854],[36.6713,47.7936],[36.7134,47.6789],[36.7916,47.6849],[36.7747,47.6651],[36.7183,47.6588],[36.7252,47.6311],[36.7658,47.6341],[36.7453,47.6217],[36.7481,47.6066],[36.8303,47.6242],[36.8934,47.5449],[36.9443,47.5761],[37.0016,47.5389],[37.021,47.5528],[37.0742,47.4937],[37.1577,47.4549],[37.1798,47.4837],[37.196,47.4789],[37.19,47.469],[37.245,47.4691],[37.1946,47.3734],[37.2034,47.3558],[37.162,47.3414],[37.146,47.3811],[37.1066,47.376],[37.1222,47.3404],[37.0361,47.3],[37.0265,47.3148],[36.926,47.3194],[36.9626,47.2017],[36.8546,47.1991],[36.8885,47.1708],[36.9495,47.1587],[36.9835,47.1244],[37.0022,47.1272],[37.0128,47.0894],[36.9854,47.0798],[37.0812,47.0475],[37.0987,47.0592],[37.1249,47.0391],[37.0893,47.0075],[37.1411,46.982],[37.0214,46.9279],[37.1687,46.7104],[37.1959,46.7013],[37.2797,46.688],[37.3979,46.7016],[37.6201,46.8299],[38.1409,46.861],[38.3381,46.9808],[38.2285,47.1226],[38.2428,47.2178],[38.2329,47.229],[38.2882,47.2385],[38.288,47.2568],[38.3335,47.2692],[38.3228,47.2815],[38.336,47.3063],[38.2209,47.3054],[38.245,47.3637],[38.2865,47.3734],[38.2865,47.3914],[38.3024,47.3928],[38.2847,47.5443],[38.3073,47.5465],[38.3108,47.5761],[38.3507,47.5762],[38.3505,47.6166],[38.4568,47.6171],[38.4565,47.644],[38.6164,47.6446],[38.6293,47.6694],[38.666,47.6693],[38.6658,47.6987],[38.7726,47.6855],[38.7702,47.7211],[38.7965,47.7737],[38.7889,47.8159],[38.8288,47.8159],[38.8262,47.8457],[38.843,47.8653],[38.879,47.876],[39.0745,47.8695],[39.0652,47.896],[39.0914,47.941],[39.0385,47.9564],[39.0398,48.0069],[38.8613,48.0148],[38.8254,48.0298],[38.8127,48.0479],[38.8315,48.0579],[38.8293,48.0774],[38.8179,48.0659],[38.7995,48.0747],[38.8175,48.0843],[38.8067,48.0883],[38.8204,48.1162],[38.6025,48.1723],[38.6134,48.2043],[38.5747,48.2676],[38.427,48.2783],[38.4411,48.3165],[38.4334,48.3393],[38.4984,48.3656],[38.4501,48.3759],[38.4332,48.4477],[38.3823,48.4296],[38.3715,48.443],[38.342,48.4386],[38.2882,48.4767],[38.305,48.4749],[38.2985,48.4952],[38.3201,48.5089],[38.2735,48.5454],[38.2637,48.6367],[38.2289,48.634],[38.2258,48.6525],[38.315,48.6847],[38.3043,48.7123],[38.3253,48.7142],[38.3213,48.7317],[38.263,48.7502],[38.2826,48.7738],[38.2788,48.8026],[38.3183,48.806],[38.3135,48.8283],[38.2214,48.8396],[38.2279,48.9368],[38.1311,48.9239],[38.0542,48.9397],[38.0383,48.9253],[38.037,48.9434],[38.0052,48.9466],[38.0302,48.9742],[38.054,48.9649],[38.0551,48.9865],[38.0989,48.9923],[38.0531,49.0589],[38.0816,49.148],[38.0442,49.1505],[38.0404,49.1267],[37.9807,49.1306],[37.8934,49.1605],[37.8931,49.1747],[37.935,49.1918],[37.9197,49.2064],[37.9427,49.2141],[37.9333,49.2208],[37.8903,49.2119],[37.8617,49.2329],[37.8434,49.2011],[37.7978,49.2021],[37.5691,49.2313],[37.5013,49.1804],[37.5552,49.166],[37.5631,49.1455],[37.5416,49.1453],[37.5846,49.1262],[37.4871,49.1001],[37.5075,49.0756],[37.4798,49.0575],[37.4178,49.0626],[37.385,49.0482],[37.3911,49.0256],[37.3757,49.0266],[37.3727,48.9992],[37.3449,49.0032],[37.2947,48.9712],[37.32,48.9573],[37.3109,48.9422],[37.333,48.9409],[37.328,48.922],[37.2226,48.9086],[37.1935,48.8814],[37.1921,48.8145],[37.0988,48.851],[37.0783,48.8176],[37.0238,48.8179],[36.9949,48.7874],[37.0431,48.7663],[37.0359,48.7459],[36.9665,48.7934],[36.8543,48.8003],[36.8409,48.7727],[36.8209,48.7713],[36.7879,48.7802],[36.7907,48.801],[36.7198,48.8057],[36.6893,48.7761],[36.7091,48.7674],[36.7356,48.7038],[36.7117,48.6923]]]}},{"type":"Feature","properties":{"region":"Запорожская область"},"geometry":{"type":"Polygon","coordinates":[[[35.468,46.1465],[35.5819,46.2628],[35.8444,46.41],[35.8918,46.362],[35.986,46.3162],[36.1565,46.3042],[36.2921,46.3529],[36.3585,46.4179],[36.4463,46.4637],[36.4988,46.5282],[36.5457,46.5357],[36.6598,46.4732],[36.7608,46.4595],[36.8775,46.4784],[36.9591,46.5216],[37.0104,46.583],[37.0242,46.6389],[37.0979,46.6899],[37.1687,46.7104],[37.0214,46.9279],[37.1411,46.982],[37.0893,47.0075],[37.1249,47.0391],[37.0987,47.0592],[37.0812,47.0475],[36.9854,47.0798],[37.0128,47.0894],[37.0022,47.1272],[36.9835,47.1244],[36.9495,47.1587],[36.8885,47.1708],[36.8546,47.1991],[36.9626,47.2017],[36.926,47.3194],[37.0265,47.3148],[37.0361,47.3],[37.1222,47.3404],[37.1066,47.376],[37.146,47.3811],[37.162,47.3414],[37.2034,47.3558],[37.1946,47.3734],[37.245,47.4691],[37.19,47.469],[37.196,47.4789],[37.1798,47.4837],[37.1577,47.4549],[37.0742,47.4937],[37.021,47.5528],[37.0016,47.5389],[36.9443,47.5761],[36.8934,47.5449],[36.8303,47.6242],[36.7481,47.6066],[36.7453,47.6217],[36.7658,47.6341],[36.7252,47.6311],[36.7183,47.6588],[36.7747,47.6651],[36.7916,47.6849],[36.7134,47.6789],[36.6713,47.7936],[36.5876,47.7854],[36.6047,47.8508],[36.4695,47.824],[36.3241,47.8395],[36.3302,47.8203],[36.2755,47.8155],[36.2662,47.8332],[36.1976,47.8325],[36.1958,47.8594],[36.0737,47.8488],[36.0541,47.88],[36.0808,47.8832],[36.0872,47.8612],[36.1192,47.8648],[36.1302,47.8903],[36.1197,47.9279],[36.1087,47.9418],[36.085,47.9303],[36.0736,47.9652],[36.0479,47.9655],[36.0707,47.9715],[36.062,48.001],[36.0344,48.0187],[36.0655,48.0252],[36.0525,48.0591],[35.9753,48.0432],[35.9885,48.0584],[35.9694,48.0731],[35.9855,48.0846],[35.9666,48.0948],[35.8169,48.0661],[35.8061,48.1006],[35.7428,48.0957],[35.7034,48.1402],[35.5237,48.0744],[35.5188,48.0949],[35.4213,48.1002],[35.295,48.1443],[35.1017,48.1316],[35.0579,48.1205],[35.0389,48.0984],[34.9297,48.0903],[34.9147,48.0909],[34.9158,48.1306],[34.8551,48.133],[34.8757,48.0545],[34.8392,48.0505],[34.847,48.0139],[34.8695,47.9824],[34.9049,47.9857],[34.9191,47.9335],[34.881,47.9289],[34.8764,47.942],[34.8492,47.9378],[34.8517,47.921],[34.802,47.9156],[34.8171,47.8643],[34.8608,47.8805],[34.8708,47.8506],[34.8972,47.8528],[34.9034,47.8296],[34.8789,47.8184],[34.8936,47.7602],[34.9575,47.7696],[34.956,47.7123],[34.9299,47.7116],[34.9382,47.6774],[34.9057,47.6739],[34.9417,47.6012],[34.9275,47.5803],[34.9569,47.5686],[34.958,47.5383],[34.8623,47.5151],[34.7963,47.537],[34.5724,47.5616],[34.4689,47.5321],[34.3,47.5191],[34.1395,47.4772],[34.2427,47.4339],[34.3053,47.2691],[34.3291,47.2907],[34.4012,47.2872],[34.3987,47.2984],[34.4188,47.3009],[34.4135,47.3233],[34.5159,47.3362],[34.5138,47.3181],[34.4805,47.3078],[34.4878,47.2799],[34.5182,47.2835],[34.5301,47.2508],[34.491,47.2406],[34.5195,47.1047],[34.5535,47.106],[34.5673,47.0245],[34.5917,47.0268],[34.5996,46.9918],[34.6175,46.9933],[34.6238,46.9734],[34.681,46.9791],[34.6855,46.9559],[34.7362,46.9615],[34.7526,46.8795],[34.8047,46.8825],[34.817,46.8289],[34.7581,46.8227],[34.7676,46.7809],[34.7501,46.7805],[34.7505,46.7579],[34.6252,46.724],[34.6322,46.6876],[34.7462,46.6832],[34.7563,46.627],[34.7128,46.6201],[34.7233,46.5815],[34.7483,46.5842],[34.7576,46.5493],[34.8912,46.5626],[34.8904,46.5068],[34.9472,46.5125],[35.0222,46.4793],[35.0535,46.4816],[35.0735,46.2999],[35.1282,46.3021],[35.2781,46.2646],[35.468,46.1465]]]}}]}